{
  "type": "FeatureCollection",
  "features": [
    {
      "type": "Feature",
      "properties": {
        "norad_id": 65731,
        "name": "1998-067XK",
        "group": "stations",
        "lat": -51.406851626625404,
        "lon": -24.04035581858863,
        "alt_km": 366.8714234539366,
        "timestamp": "2025-12-25T09:48:51.040370+00:00",
        "meta_object_name": "1998-067XK",
        "meta_object_id": "1998-067XK",
        "meta_epoch": "2025-12-24T11:16:20.028000",
        "meta_mean_motion": 15.67978094,
        "meta_eccentricity": 0.00049802,
        "meta_inclination": 51.6288,
        "meta_ra_of_asc_node": 77.6233,
        "meta_arg_of_pericenter": 319.0572,
        "meta_mean_anomaly": 41.005,
        "meta_ephemeris_type": 0,
        "meta_classification_type": "U",
        "meta_norad_cat_id": 65731,
        "meta_element_set_no": 999,
        "meta_rev_at_epoch": 1498,
        "meta_bstar": 0.00093626937,
        "meta_mean_motion_dot": 0.00106638,
        "meta_mean_motion_ddot": 0,
        "tle_line1": "1 65731U 98067XK  25358.46967625  .00106638  00000+0  93627-3 0  9993",
        "tle_line2": "2 65731  51.6288  77.6233 0004980 319.0572  41.0050 15.67978094 14988"
      },
      "geometry": {
        "type": "Point",
        "coordinates": [
          -24.04035581858863,
          -51.406851626625404
        ]
      }
    },
    {
      "type": "Feature",
      "properties": {
        "norad_id": 65732,
        "name": "RSP-03",
        "group": "stations",
        "lat": 21.64265206462734,
        "lon": 90.14681862328597,
        "alt_km": 348.82841805021417,
        "timestamp": "2025-12-25T09:48:51.040380+00:00",
        "meta_object_name": "RSP-03",
        "meta_object_id": "1998-067XL",
        "meta_epoch": "2025-12-25T00:32:25.214784",
        "meta_mean_motion": 15.71791128,
        "meta_eccentricity": 0.0006004,
        "meta_inclination": 51.6261,
        "meta_ra_of_asc_node": 73.8,
        "meta_arg_of_pericenter": 329.4925,
        "meta_mean_anomaly": 30.5723,
        "meta_ephemeris_type": 0,
        "meta_classification_type": "U",
        "meta_norad_cat_id": 65732,
        "meta_element_set_no": 999,
        "meta_rev_at_epoch": 1509,
        "meta_bstar": 0.0010967,
        "meta_mean_motion_dot": 0.00147294,
        "meta_mean_motion_ddot": 0,
        "tle_line1": "1 65732U 98067XL  25359.02251406  .00147294  00000+0  10967-2 0  9998",
        "tle_line2": "2 65732  51.6261  73.8000 0006004 329.4925  30.5723 15.71791128 15095"
      },
      "geometry": {
        "type": "Point",
        "coordinates": [
          90.14681862328597,
          21.64265206462734
        ]
      }
    },
    {
      "type": "Feature",
      "properties": {
        "norad_id": 65733,
        "name": "GHS-01",
        "group": "stations",
        "lat": -49.71245843516587,
        "lon": 0.5989538600792591,
        "alt_km": 331.1939692753285,
        "timestamp": "2025-12-25T09:48:51.040391+00:00",
        "meta_object_name": "GHS-01",
        "meta_object_id": "1998-067XM",
        "meta_epoch": "2025-12-24T11:22:26.359680",
        "meta_mean_motion": 15.80150374,
        "meta_eccentricity": 0.00095342,
        "meta_inclination": 51.6288,
        "meta_ra_of_asc_node": 74.6328,
        "meta_arg_of_pericenter": 353.1442,
        "meta_mean_anomaly": 6.9427,
        "meta_ephemeris_type": 0,
        "meta_classification_type": "U",
        "meta_norad_cat_id": 65733,
        "meta_element_set_no": 999,
        "meta_rev_at_epoch": 1503,
        "meta_bstar": 0.0014499406,
        "meta_mean_motion_dot": 0.00286733,
        "meta_mean_motion_ddot": 0,
        "tle_line1": "1 65733U 98067XM  25358.47391620  .00286733  00000+0  14499-2 0  9996",
        "tle_line2": "2 65733  51.6288  74.6328 0009534 353.1442   6.9427 15.80150374 15030"
      },
      "geometry": {
        "type": "Point",
        "coordinates": [
          0.5989538600792591,
          -49.71245843516587
        ]
      }
    },
    {
      "type": "Feature",
      "properties": {
        "norad_id": 65941,
        "name": "YOTSUBA-KULOVER",
        "group": "stations",
        "lat": 51.10179977225343,
        "lon": 155.33469532339623,
        "alt_km": 377.19770369054913,
        "timestamp": "2025-12-25T09:48:51.040401+00:00",
        "meta_object_name": "YOTSUBA-KULOVER",
        "meta_object_id": "1998-067XN",
        "meta_epoch": "2025-12-24T15:01:23.824416",
        "meta_mean_motion": 15.61031773,
        "meta_eccentricity": 0.0002334,
        "meta_inclination": 51.6294,
        "meta_ra_of_asc_node": 80.1673,
        "meta_arg_of_pericenter": 354.5488,
        "meta_mean_anomaly": 5.548,
        "meta_ephemeris_type": 0,
        "meta_classification_type": "U",
        "meta_norad_cat_id": 65941,
        "meta_element_set_no": 999,
        "meta_rev_at_epoch": 1171,
        "meta_bstar": 0.00084629408,
        "meta_mean_motion_dot": 0.00072714,
        "meta_mean_motion_ddot": 0,
        "tle_line1": "1 65941U 98067XN  25358.62597019  .00072714  00000+0  84629-3 0  9999",
        "tle_line2": "2 65941  51.6294  80.1673 0002334 354.5488   5.5480 15.61031773 11714"
      },
      "geometry": {
        "type": "Point",
        "coordinates": [
          155.33469532339623,
          51.10179977225343
        ]
      }
    },
    {
      "type": "Feature",
      "properties": {
        "norad_id": 65942,
        "name": "BOTAN",
        "group": "stations",
        "lat": -36.759138962902455,
        "lon": -68.54392314408702,
        "alt_km": 376.4435871150945,
        "timestamp": "2025-12-25T09:48:51.040412+00:00",
        "meta_object_name": "BOTAN",
        "meta_object_id": "1998-067XP",
        "meta_epoch": "2025-12-24T22:06:45.138528",
        "meta_mean_motion": 15.65433076,
        "meta_eccentricity": 0.00033628,
        "meta_inclination": 51.6276,
        "meta_ra_of_asc_node": 77.6384,
        "meta_arg_of_pericenter": 336.9031,
        "meta_mean_anomaly": 23.1813,
        "meta_ephemeris_type": 0,
        "meta_classification_type": "U",
        "meta_norad_cat_id": 65942,
        "meta_element_set_no": 999,
        "meta_rev_at_epoch": 1177,
        "meta_bstar": 0.0011375872,
        "meta_mean_motion_dot": 0.00117098,
        "meta_mean_motion_ddot": 0,
        "tle_line1": "1 65942U 98067XP  25358.92135577  .00117098  00000+0  11376-2 0  9993",
        "tle_line2": "2 65942  51.6276  77.6384 0003362 336.9031  23.1813 15.65433076 11773"
      },
      "geometry": {
        "type": "Point",
        "coordinates": [
          -68.54392314408702,
          -36.759138962902455
        ]
      }
    },
    {
      "type": "Feature",
      "properties": {
        "norad_id": 65943,
        "name": "E-KAGAKU-1",
        "group": "stations",
        "lat": 51.02264484843138,
        "lon": 154.50955037600116,
        "alt_km": 377.7800446863921,
        "timestamp": "2025-12-25T09:48:51.040424+00:00",
        "meta_object_name": "E-KAGAKU-1",
        "meta_object_id": "1998-067XQ",
        "meta_epoch": "2025-12-24T11:57:09.904320",
        "meta_mean_motion": 15.61022855,
        "meta_eccentricity": 0.00014072,
        "meta_inclination": 51.6316,
        "meta_ra_of_asc_node": 80.8196,
        "meta_arg_of_pericenter": 317.6976,
        "meta_mean_anomaly": 42.3909,
        "meta_ephemeris_type": 0,
        "meta_classification_type": "U",
        "meta_norad_cat_id": 65943,
        "meta_element_set_no": 999,
        "meta_rev_at_epoch": 1169,
        "meta_bstar": 0.00086882896,
        "meta_mean_motion_dot": 0.00074652,
        "meta_mean_motion_ddot": 0,
        "tle_line1": "1 65943U 98067XQ  25358.49803130  .00074652  00000+0  86883-3 0  9997",
        "tle_line2": "2 65943  51.6316  80.8196 0001407 317.6976  42.3909 15.61022855 11693"
      },
      "geometry": {
        "type": "Point",
        "coordinates": [
          154.50955037600116,
          51.02264484843138
        ]
      }
    },
    {
      "type": "Feature",
      "properties": {
        "norad_id": 66052,
        "name": "HRC MONOBLOCK CAMERA",
        "group": "stations",
        "lat": 11.089239582463753,
        "lon": -110.63729157809355,
        "alt_km": 401.0663436087925,
        "timestamp": "2025-12-25T09:48:51.040435+00:00",
        "meta_object_name": "HRC MONOBLOCK CAMERA",
        "meta_object_id": "1998-067XR",
        "meta_epoch": "2025-12-24T22:18:27.885024",
        "meta_mean_motion": 15.54975893,
        "meta_eccentricity": 0.0002069,
        "meta_inclination": 51.6302,
        "meta_ra_of_asc_node": 80.6909,
        "meta_arg_of_pericenter": 244.0081,
        "meta_mean_anomaly": 116.0697,
        "meta_ephemeris_type": 0,
        "meta_classification_type": "U",
        "meta_norad_cat_id": 66052,
        "meta_element_set_no": 999,
        "meta_rev_at_epoch": 1073,
        "meta_bstar": 0.00052683,
        "meta_mean_motion_dot": 0.00035651,
        "meta_mean_motion_ddot": 0,
        "tle_line1": "1 66052U 98067XR  25358.92948941  .00035651  00000+0  52683-3 0  9994",
        "tle_line2": "2 66052  51.6302  80.6909 0002069 244.0081 116.0697 15.54975893 10733"
      },
      "geometry": {
        "type": "Point",
        "coordinates": [
          -110.63729157809355,
          11.089239582463753
        ]
      }
    }
  ]
}